CCSDS_OMM_VERS = 2.0
CREATION_DATE  = 
ORIGINATOR     = 

OBJECT_NAME    = SL-4 R/B
OBJECT_ID      = 2014-021B
CENTER_NAME    = EARTH
REF_FRAME      = TEME
TIME_SYSTEM    = UTC
MEAN_ELEMENT_THEORY = SGP/SGP4

EPOCH          = 2026-02-18T01:56:51.886176
MEAN_MOTION    = 15.38494892
ECCENTRICITY   = .0098859
INCLINATION    = 51.6060
RA_OF_ASC_NODE = 72.8866
ARG_OF_PERICENTER = 31.5102
MEAN_ANOMALY   = 329.1751

EPHEMERIS_TYPE = 0
CLASSIFICATION_TYPE = U
NORAD_CAT_ID   = 39679
ELEMENT_SET_NO = 999
REV_AT_EPOCH   = 65325
BSTAR          = .28349E-3
MEAN_MOTION_DOT = .12517E-3
MEAN_MOTION_DDOT = 0

CCSDS_OMM_VERS = 2.0
CREATION_DATE  = 
ORIGINATOR     = 

OBJECT_NAME    = ALOS-2
OBJECT_ID      = 2014-029A
CENTER_NAME    = EARTH
REF_FRAME      = TEME
TIME_SYSTEM    = UTC
MEAN_ELEMENT_THEORY = SGP/SGP4

EPOCH          = 2026-02-18T05:46:30.383616
MEAN_MOTION    = 14.79470247
ECCENTRICITY   = .0001546
INCLINATION    = 97.9214
RA_OF_ASC_NODE = 148.1184
ARG_OF_PERICENTER = 102.2086
MEAN_ANOMALY   = 257.9299

EPHEMERIS_TYPE = 0
CLASSIFICATION_TYPE = U
NORAD_CAT_ID   = 39766
ELEMENT_SET_NO = 999
REV_AT_EPOCH   = 63399
BSTAR          = .89845E-4
MEAN_MOTION_DOT = .62E-5
MEAN_MOTION_DDOT = 0

CCSDS_OMM_VERS = 2.0
CREATION_DATE  = 
ORIGINATOR     = 

OBJECT_NAME    = YAOGAN-29
OBJECT_ID      = 2015-069A
CENTER_NAME    = EARTH
REF_FRAME      = TEME
TIME_SYSTEM    = UTC
MEAN_ELEMENT_THEORY = SGP/SGP4

EPOCH          = 2026-02-18T05:27:27.187200
MEAN_MOTION    = 14.82972645
ECCENTRICITY   = .000276
INCLINATION    = 98.0162
RA_OF_ASC_NODE = 77.6028
ARG_OF_PERICENTER = 68.9586
MEAN_ANOMALY   = 291.1922

EPHEMERIS_TYPE = 0
CLASSIFICATION_TYPE = U
NORAD_CAT_ID   = 41038
ELEMENT_SET_NO = 999
REV_AT_EPOCH   = 55299
BSTAR          = .95291E-4
MEAN_MOTION_DOT = .72E-5
MEAN_MOTION_DDOT = 0

CCSDS_OMM_VERS = 2.0
CREATION_DATE  = 
ORIGINATOR     = 

OBJECT_NAME    = ASTRO-H (HITOMI)
OBJECT_ID      = 2016-012A
CENTER_NAME    = EARTH
REF_FRAME      = TEME
TIME_SYSTEM    = UTC
MEAN_ELEMENT_THEORY = SGP/SGP4

EPOCH          = 2026-02-18T04:46:28.003008
MEAN_MOTION    = 15.09857626
ECCENTRICITY   = .0009886
INCLINATION    = 30.9990
RA_OF_ASC_NODE = 122.3104
ARG_OF_PERICENTER = 137.1977
MEAN_ANOMALY   = 222.9432

EPHEMERIS_TYPE = 0
CLASSIFICATION_TYPE = U
NORAD_CAT_ID   = 41337
ELEMENT_SET_NO = 999
REV_AT_EPOCH   = 54928
BSTAR          = .18316E-3
MEAN_MOTION_DOT = .3135E-4
MEAN_MOTION_DDOT = 0

CCSDS_OMM_VERS = 2.0
CREATION_DATE  = 
ORIGINATOR     = 

OBJECT_NAME    = HXMT (HUIYAN)
OBJECT_ID      = 2017-034A
CENTER_NAME    = EARTH
REF_FRAME      = TEME
TIME_SYSTEM    = UTC
MEAN_ELEMENT_THEORY = SGP/SGP4

EPOCH          = 2026-02-18T05:26:15.571968
MEAN_MOTION    = 15.17208736
ECCENTRICITY   = .0030609
INCLINATION    = 43.0143
RA_OF_ASC_NODE = 124.8578
ARG_OF_PERICENTER = 112.5141
MEAN_ANOMALY   = 247.8951

EPHEMERIS_TYPE = 0
CLASSIFICATION_TYPE = U
NORAD_CAT_ID   = 42758
ELEMENT_SET_NO = 999
REV_AT_EPOCH   = 47958
BSTAR          = .28395E-3
MEAN_MOTION_DOT = .5576E-4
MEAN_MOTION_DDOT = 0

CCSDS_OMM_VERS = 2.0
CREATION_DATE  = 
ORIGINATOR     = 

OBJECT_NAME    = CZ-2C R/B
OBJECT_ID      = 2018-054D
CENTER_NAME    = EARTH
REF_FRAME      = TEME
TIME_SYSTEM    = UTC
MEAN_ELEMENT_THEORY = SGP/SGP4

EPOCH          = 2026-02-18T05:46:20.849376
MEAN_MOTION    = 16.05366667
ECCENTRICITY   = .0011499
INCLINATION    = 35.1265
RA_OF_ASC_NODE = 75.4734
ARG_OF_PERICENTER = 123.5552
MEAN_ANOMALY   = 236.6290

EPHEMERIS_TYPE = 0
CLASSIFICATION_TYPE = U
NORAD_CAT_ID   = 43521
ELEMENT_SET_NO = 999
REV_AT_EPOCH   = 42577
BSTAR          = .83153E-3
MEAN_MOTION_DOT = .620754E-2
MEAN_MOTION_DDOT = .18287E-3

CCSDS_OMM_VERS = 2.0
CREATION_DATE  = 
ORIGINATOR     = 

OBJECT_NAME    = SAOCOM 1A
OBJECT_ID      = 2018-076A
CENTER_NAME    = EARTH
REF_FRAME      = TEME
TIME_SYSTEM    = UTC
MEAN_ELEMENT_THEORY = SGP/SGP4

EPOCH          = 2026-02-18T04:22:43.133952
MEAN_MOTION    = 14.82143191
ECCENTRICITY   = .0001344
INCLINATION    = 97.8870
RA_OF_ASC_NODE = 237.6307
ARG_OF_PERICENTER = 79.9590
MEAN_ANOMALY   = 280.1775

EPHEMERIS_TYPE = 0
CLASSIFICATION_TYPE = U
NORAD_CAT_ID   = 43641
ELEMENT_SET_NO = 999
REV_AT_EPOCH   = 39847
BSTAR          = -.41452E-4
MEAN_MOTION_DOT = -.382E-5
MEAN_MOTION_DDOT = 0

CCSDS_OMM_VERS = 2.0
CREATION_DATE  = 
ORIGINATOR     = 

OBJECT_NAME    = H-2A R/B
OBJECT_ID      = 2018-084L
CENTER_NAME    = EARTH
REF_FRAME      = TEME
TIME_SYSTEM    = UTC
MEAN_ELEMENT_THEORY = SGP/SGP4

EPOCH          = 2026-02-18T02:54:49.246848
MEAN_MOTION    = 15.40462393
ECCENTRICITY   = .0026369
INCLINATION    = 98.8744
RA_OF_ASC_NODE = 262.3404
ARG_OF_PERICENTER = 91.0914
MEAN_ANOMALY   = 269.3349

EPHEMERIS_TYPE = 0
CLASSIFICATION_TYPE = U
NORAD_CAT_ID   = 43682
ELEMENT_SET_NO = 999
REV_AT_EPOCH   = 40276
BSTAR          = .43973E-3
MEAN_MOTION_DOT = .17941E-3
MEAN_MOTION_DDOT = 0

CCSDS_OMM_VERS = 2.0
CREATION_DATE  = 
ORIGINATOR     = 

OBJECT_NAME    = SAOCOM 1B
OBJECT_ID      = 2020-059A
CENTER_NAME    = EARTH
REF_FRAME      = TEME
TIME_SYSTEM    = UTC
MEAN_ELEMENT_THEORY = SGP/SGP4

EPOCH          = 2026-02-18T03:30:30.872160
MEAN_MOTION    = 14.82150467
ECCENTRICITY   = .0001484
INCLINATION    = 97.8868
RA_OF_ASC_NODE = 236.6930
ARG_OF_PERICENTER = 85.9343
MEAN_ANOMALY   = 274.2040

EPHEMERIS_TYPE = 0
CLASSIFICATION_TYPE = U
NORAD_CAT_ID   = 46265
ELEMENT_SET_NO = 999
REV_AT_EPOCH   = 29585
BSTAR          = .11141E-3
MEAN_MOTION_DOT = .835E-5
MEAN_MOTION_DDOT = 0

CCSDS_OMM_VERS = 2.0
CREATION_DATE  = 
ORIGINATOR     = 

OBJECT_NAME    = CSS (TIANHE)
OBJECT_ID      = 2021-035A
CENTER_NAME    = EARTH
REF_FRAME      = TEME
TIME_SYSTEM    = UTC
MEAN_ELEMENT_THEORY = SGP/SGP4

EPOCH          = 2026-02-18T03:04:58.126656
MEAN_MOTION    = 15.59814503
ECCENTRICITY   = .0004277
INCLINATION    = 41.4682
RA_OF_ASC_NODE = 327.1080
ARG_OF_PERICENTER = 131.4660
MEAN_ANOMALY   = 228.6546

EPHEMERIS_TYPE = 0
CLASSIFICATION_TYPE = U
NORAD_CAT_ID   = 48274
ELEMENT_SET_NO = 999
REV_AT_EPOCH   = 27455
BSTAR          = .31225E-3
MEAN_MOTION_DOT = .25542E-3
MEAN_MOTION_DDOT = 0

CCSDS_OMM_VERS = 2.0
CREATION_DATE  = 
ORIGINATOR     = 

OBJECT_NAME    = COSMOS 2550
OBJECT_ID      = 2021-056A
CENTER_NAME    = EARTH
REF_FRAME      = TEME
TIME_SYSTEM    = UTC
MEAN_ELEMENT_THEORY = SGP/SGP4

EPOCH          = 2026-02-18T05:10:52.700736
MEAN_MOTION    = 15.33834253
ECCENTRICITY   = .0008391
INCLINATION    = 67.1424
RA_OF_ASC_NODE = 99.8384
ARG_OF_PERICENTER = 270.7327
MEAN_ANOMALY   = 89.2866

EPHEMERIS_TYPE = 0
CLASSIFICATION_TYPE = U
NORAD_CAT_ID   = 48865
ELEMENT_SET_NO = 999
REV_AT_EPOCH   = 26047
BSTAR          = .38364E-5
MEAN_MOTION_DOT = -.66E-6
MEAN_MOTION_DDOT = 0

CCSDS_OMM_VERS = 2.0
CREATION_DATE  = 
ORIGINATOR     = 

OBJECT_NAME    = CZ-2C R/B
OBJECT_ID      = 2022-058K
CENTER_NAME    = EARTH
REF_FRAME      = TEME
TIME_SYSTEM    = UTC
MEAN_ELEMENT_THEORY = SGP/SGP4

EPOCH          = 2026-02-18T00:32:13.069536
MEAN_MOTION    = 15.52802963
ECCENTRICITY   = .00421
INCLINATION    = 50.1886
RA_OF_ASC_NODE = 59.3450
ARG_OF_PERICENTER = 117.1440
MEAN_ANOMALY   = 243.3832

EPHEMERIS_TYPE = 0
CLASSIFICATION_TYPE = U
NORAD_CAT_ID   = 52794
ELEMENT_SET_NO = 999
REV_AT_EPOCH   = 20707
BSTAR          = .44943E-3
MEAN_MOTION_DOT = .29094E-3
MEAN_MOTION_DDOT = 0

