SL-4 R/B                
1 39679U 14021B   26049.08115609  .00012517  00000+0  28349-3 0  9997
2 39679  51.6060  72.8866 0098859  31.5102 329.1751 15.38494892653254
ALOS-2                  
1 39766U 14029A   26049.24062944  .00000620  00000+0  89845-4 0  9994
2 39766  97.9214 148.1184 0001546 102.2086 257.9299 14.79470247633995
YAOGAN-29               
1 41038U 15069A   26049.22739800  .00000720  00000+0  95291-4 0  9997
2 41038  98.0162  77.6028 0002760  68.9586 291.1922 14.82972645552995
ASTRO-H (HITOMI)        
1 41337U 16012A   26049.19893522  .00003135  00000+0  18316-3 0  9991
2 41337  30.9990 122.3104 0009886 137.1977 222.9432 15.09857626549280
HXMT (HUIYAN)           
1 42758U 17034A   26049.22656912  .00005576  00000+0  28395-3 0  9997
2 42758  43.0143 124.8578 0030609 112.5141 247.8951 15.17208736479580
CZ-2C R/B               
1 43521U 18054D   26049.24051909  .00620754  18287-3  83153-3 0  9990
2 43521  35.1265  75.4734 0011499 123.5552 236.6290 16.05366667425775
SAOCOM 1A               
1 43641U 18076A   26049.18244368 -.00000382  00000+0 -41452-4 0  9991
2 43641  97.8870 237.6307 0001344  79.9590 280.1775 14.82143191398473
H-2A R/B                
1 43682U 18084L   26049.12140332  .00017941  00000+0  43973-3 0  9991
2 43682  98.8744 262.3404 0026369  91.0914 269.3349 15.40462393402768
SAOCOM 1B               
1 46265U 20059A   26049.14619065  .00000835  00000+0  11141-3 0  9998
2 46265  97.8868 236.6930 0001484  85.9343 274.2040 14.82150467295855
CSS (TIANHE)            
1 48274U 21035A   26049.12845054  .00025542  00000+0  31225-3 0  9999
2 48274  41.4682 327.1080 0004277 131.4660 228.6546 15.59814503274551
COSMOS 2550             
1 48865U 21056A   26049.21588774 -.00000066  00000+0  38364-5 0  9999
2 48865  67.1424  99.8384 0008391 270.7327  89.2866 15.33834253260472
CZ-2C R/B               
1 52794U 22058K   26049.02237349  .00029094  00000+0  44943-3 0  9995
2 52794  50.1886  59.3450 0042100 117.1440 243.3832 15.52802963207070
